{
    "links": {
        "self": "http://www.neowsapp.com/rest/v1/neo/3727232?api_key=iIulBulltgU6a56xZRHN4H3l9WmuAYTsLGpBGhQ2"
    },
    "id": "3727232",
    "neo_reference_id": "3727232",
    "name": "(2015 RU36)",
    "designation": "2015 RU36",
    "nasa_jpl_url": "http://ssd.jpl.nasa.gov/sbdb.cgi?sstr=3727232",
    "absolute_magnitude_h": 25.5,
    "estimated_diameter": {
        "kilometers": {
            "estimated_diameter_min": 0.0211132445,
            "estimated_diameter_max": 0.0472106499
        },
        "meters": {
            "estimated_diameter_min": 21.113244479,
            "estimated_diameter_max": 47.2106498806
        },
        "miles": {
            "estimated_diameter_min": 0.0131191578,
            "estimated_diameter_max": 0.0293353287
        },
        "feet": {
            "estimated_diameter_min": 69.2691770164,
            "estimated_diameter_max": 154.8905885541
        }
    },
    "is_potentially_hazardous_asteroid": false,
    "close_approach_data": [
        {
            "close_approach_date": "2015-09-26",
            "close_approach_date_full": "2015-Sep-26 06:50",
            "epoch_date_close_approach": 1443250200000,
            "relative_velocity": {
                "kilometers_per_second": "12.3650325463",
                "kilometers_per_hour": "44514.1171665544",
                "miles_per_hour": "27659.3413027404"
            },
            "miss_distance": {
                "astronomical": "0.0377344875",
                "lunar": "14.6787156375",
                "kilometers": "5644998.955541625",
                "miles": "3507639.699559425"
            },
            "orbiting_body": "Earth"
        },
        {
            "close_approach_date": "2135-02-12",
            "close_approach_date_full": "2135-Feb-12 22:09",
            "epoch_date_close_approach": 5210604540000,
            "relative_velocity": {
                "kilometers_per_second": "19.4928921864",
                "kilometers_per_hour": "70174.4118711214",
                "miles_per_hour": "43603.6505318087"
            },
            "miss_distance": {
                "astronomical": "0.2744853403",
                "lunar": "106.7747973767",
                "kilometers": "41062422.255105161",
                "miles": "25515006.0427707818"
            },
            "orbiting_body": "Earth"
        }
    ],
    "orbital_data": {
        "orbit_id": "5",
        "orbit_determination_date": "2017-04-06 08:32:03",
        "first_observation_date": "2015-09-11",
        "last_observation_date": "2015-09-19",
        "data_arc_in_days": 8,
        "observations_used": 16,
        "orbit_uncertainty": "8",
        "minimum_orbit_intersection": ".0195813",
        "jupiter_tisserand_invariant": "4.158",
        "epoch_osculation": "2457277.5",
        "eccentricity": ".4853272088108641",
        "semi_major_axis": "1.636351730234756",
        "inclination": "4.027038044025177",
        "ascending_node_longitude": "350.0083296305181",
        "orbital_period": "764.5632461285012",
        "perihelion_distance": ".8421857123670939",
        "perihelion_argument": "75.6403496832588",
        "aphelion_distance": "2.430517748102419",
        "perihelion_time": "2457336.606955595311",
        "mean_anomaly": "332.1690728372579",
        "mean_motion": ".4708570570491356",
        "equinox": "J2000",
        "orbit_class": {
            "orbit_class_type": "APO",
            "orbit_class_description": "Near-Earth asteroid orbits which cross the Earth’s orbit similar to that of 1862 Apollo",
            "orbit_class_range": "a (semi-major axis) > 1.0 AU; q (perihelion) < 1.017 AU"
        }
    },
    "is_sentry_object": false
}